1 42028U 17008CJ  19043.77162752  .00001216  00000-0  51518-4 0  9990
2 42028  97.4227 112.0735 0006682 234.5919 125.4695 15.25051483110629
1 42028U 17008CJ  19044.42776418  .00001193  00000-0  50621-4 0  9991
2 42028  97.4226 112.7240 0006726 231.7817 128.2816 15.25053010110726
1 42028U 17008CJ  19044.75583201  .00001219  00000-0  51663-4 0  9999
2 42028  97.4226 113.0494 0006745 230.5637 129.5005 15.25054060110774
1 42028U 17008CJ  19045.60880799  .00001270  00000-0  53678-4 0  9991
2 42028  97.4224 113.8950 0006803 226.9235 133.1434 15.25056530110901
1 42028U 17008CJ  19046.78985132  .00000985  00000-0  42272-4 0  9998
2 42028  97.4224 115.0659 0006941 221.9469 138.1238 15.25057428111082
1 42028U 17008CJ  19047.77405153  .00000988  00000-0  42406-4 0  9990
2 42028  97.4219 116.0417 0007006 217.9585 142.1160 15.25059786111231
1 42028U 17008CJ  19048.75824906  .00001177  00000-0  49960-4 0  9993
2 42028  97.4220 117.0177 0007076 214.5203 145.5576 15.25063496111381
1 42028U 17008CJ  19049.41438037  .00001303  00000-0  54997-4 0  9990
2 42028  97.4219 117.6682 0007127 211.9467 148.1340 15.25065829111487
1 42028U 17008CJ  19049.80805914  .00001262  00000-0  53361-4 0  9993
2 42028  97.4218 118.0586 0007162 210.4702 149.6120 15.25066521111548
1 42028U 17008CJ  19050.72664174  .00001289  00000-0  54426-4 0  9999
2 42028  97.4216 118.9693 0007252 206.8871 153.1992 15.25068920111687
1 42028U 17008CJ  19050.92348071  .00001279  00000-0  54024-4 0  9999
2 42028  97.4215 119.1644 0007276 206.0728 154.0145 15.25069329111712
1 42028U 17008CJ  19051.77644880  .00001254  00000-0  53011-4 0  9998
2 42028  97.4214 120.0099 0007391 202.7792 157.3118 15.25071297111845
1 42028U 17008CJ  19052.43257751  .00001232  00000-0  52150-4 0  9998
2 42028  97.4212 120.6604 0007446 200.3497 159.7445 15.25072719111948
1 42028U 17008CJ  19052.76064159  .00001215  00000-0  51463-4 0  9999
2 42028  97.4212 120.9857 0007460 199.1979 160.8979 15.25073400111995
1 42028U 17008CJ  19053.21993121  .00001145  00000-0  48655-4 0  9991
2 42028  97.4212 121.4410 0007510 197.4496 162.6484 15.25074021112067
1 42028U 17008CJ  19053.81044657  .00000994  00000-0  42635-4 0  9991
2 42028  97.4210 122.0263 0007576 195.1504 164.9509 15.25074295112151
1 42028U 17008CJ  19054.40096135  .00000939  00000-0  40425-4 0  9999
2 42028  97.4209 122.6118 0007647 192.9559 167.1483 15.25075071112247
1 42028U 17008CJ  19054.66341220  .00000909  00000-0  39230-4 0  9994
2 42028  97.4209 122.8720 0007676 192.0100 168.0956 15.25075422112282
1 42028U 17008CJ  19055.64760216  .00000832  00000-0  36148-4 0  9993
2 42028  97.4207 123.8476 0007780 188.4873 171.6234 15.25076856112439
1 42028U 17008CJ  19056.43495329  .00000834  00000-0  36206-4 0  9998
2 42028  97.4206 124.6281 0007862 185.7278 174.3871 15.25078305112552
1 42028U 17008CJ  19057.15669113  .00000842  00000-0  36514-4 0  9993
2 42028  97.4205 125.3435 0007946 183.1379 176.9810 15.25079670112666
1 42028U 17008CJ  19057.68159129  .00000943  00000-0  40564-4 0  9994
2 42028  97.4204 125.8638 0007986 181.3072 178.8146 15.25081061112748
1 42028U 17008CJ  19058.14087849  .00000943  00000-0  40558-4 0  9998
2 42028  97.4203 126.3191 0008035 179.6962 180.4282 15.25081854112819
1 42028U 17008CJ  19059.12506425  .00001058  00000-0  45145-4 0  9998
2 42028  97.4201 127.2947 0008143 176.3176 183.8124 15.25084293112965
1 42028U 17008CJ  19059.71557499  .00001156  00000-0  49060-4 0  9999
2 42028  97.4200 127.8800 0008194 174.2967 185.8365 15.25085991113055
1 42028U 17008CJ  19060.43730925  .00001260  00000-0  53215-4 0  9990
2 42028  97.4199 128.5953 0008248 171.9175 188.2197 15.25088138113162
1 42028U 17008CJ  19060.89659437  .00001268  00000-0  53528-4 0  9993
2 42028  97.4198 129.0505 0008280 170.4679 189.6718 15.25089182113231
1 42028U 17008CJ  19061.42149108  .00001220  00000-0  51637-4 0  9999
2 42028  97.4197 129.5707 0008312 168.7903 191.3521 15.25090179113314
1 42028U 17008CJ  19061.74955150  .00001187  00000-0  50281-4 0  9992
2 42028  97.4196 129.8958 0008341 167.7079 192.4363 15.25090725113367
1 42028U 17008CJ  19062.66811948  .00001224  00000-0  51778-4 0  9994
2 42028  97.4195 130.8064 0008438 164.7141 195.4353 15.25093107113505
1 42028U 17008CJ  19063.12740266  .00001213  00000-0  51339-4 0  9991
2 42028  97.4193 131.2617 0008497 163.2757 196.8763 15.25094258113579
1 42028U 17008CJ  19063.91474482  .00001123  00000-0  47736-4 0  9998
2 42028  97.4192 132.0420 0008578 160.7345 199.4219 15.25095806113692
1 42028U 17008CJ  19064.17719187  .00001095  00000-0  46626-4 0  9996
2 42028  97.4192 132.3023 0008615 159.9306 200.2272 15.25096394113731
1 42028U 17008CJ  19064.70208587  .00001051  00000-0  44872-4 0  9995
2 42028  97.4191 132.8225 0008662 158.1755 201.9853 15.25097524113818
1 42028U 17008CJ  19065.35820208  .00001148  00000-0  48716-4 0  9995
2 42028  97.4190 133.4729 0008700 156.0253 204.1392 15.25099907113917
1 42028U 17008CJ  19065.94870528  .00001248  00000-0  52729-4 0  9990
2 42028  97.4187 134.0580 0008798 154.1351 206.0328 15.25102324114009
1 42028U 17008CJ  19066.21115099  .00001307  00000-0  55085-4 0  9990
2 42028  97.4187 134.3181 0008815 153.3259 206.8434 15.25103471114041
1 42028U 17008CJ  19066.99848760  .00001414  00000-0  59330-4 0  9999
2 42028  97.4185 135.0985 0008883 150.8321 209.3415 15.25106427114160
1 42028U 17008CJ  19067.91704607  .00001378  00000-0  57906-4 0  9999
2 42028  97.4184 136.0090 0008954 148.1133 212.0649 15.25108844114308
1 42028U 17008CJ  19068.17949087  .00001378  00000-0  57872-4 0  9993
2 42028  97.4184 136.2691 0008972 147.3083 212.8712 15.25109675114348
1 42028U 17008CJ  19068.76999122  .00001487  00000-0  62239-4 0  9997
2 42028  97.4182 136.8543 0009040 145.4036 214.7791 15.25112059114430
1 42028U 17008CJ  19069.22926842  .00001716  00000-0  71355-4 0  9992
2 42028  97.4182 137.3095 0009063 144.0040 216.1809 15.25114792114503
1 42028U 17008CJ  19069.88537853  .00001709  00000-0  71080-4 0  9991
2 42028  97.4182 137.9599 0009103 141.9694 218.2188 15.25116726114607
1 42028U 17008CJ  19070.41026634  .00001379  00000-0  57902-4 0  9992
2 42028  97.4181 138.4800 0009167 140.3666 219.8244 15.25116480114684
1 42028U 17008CJ  19071.46004090  .00001150  00000-0  48786-4 0  9997
2 42028  97.4180 139.5204 0009238 137.2823 222.9135 15.25118057114846
1 42028U 17008CJ  19071.78809499  .00001123  00000-0  47692-4 0  9993
2 42028  97.4179 139.8455 0009257 136.2513 223.9460 15.25118797114899
1 42028U 17008CJ  19072.77225635  .00001219  00000-0  51532-4 0  9991
2 42028  97.4177 140.8208 0009311 133.2211 226.9806 15.25121825115049
1 42028U 17008CJ  19073.95324802  .00001208  00000-0  51056-4 0  9997
2 42028  97.4175 141.9911 0009401 129.6846 230.5223 15.25124578115225
1 42028U 17008CJ  19074.74057448  .00001224  00000-0  51694-4 0  9990
2 42028  97.4173 142.7713 0009464 127.3635 232.8466 15.25126531115340
1 42028U 17008CJ  19075.13423757  .00001174  00000-0  49730-4 0  9996
2 42028  97.4172 143.1614 0009483 126.1542 234.0574 15.25127119115403
1 42028U 17008CJ  19075.72473175  .00001114  00000-0  47324-4 0  9991
2 42028  97.4172 143.7466 0009517 124.4028 235.8111 15.25128093115499
1 42028U 17008CJ  19076.18400396  .00001147  00000-0  48644-4 0  9999
2 42028  97.4170 144.2016 0009538 123.0821 237.1334 15.25129498115563
1 42028U 17008CJ  19076.77449601  .00001274  00000-0  53700-4 0  9996
2 42028  97.4169 144.7868 0009567 121.2807 238.9369 15.25131867115657
1 42028U 17008CJ  19077.43059827  .00001269  00000-0  53508-4 0  9997
2 42028  97.4168 145.4370 0009596 119.3254 240.8944 15.25133497115751
1 42028U 17008CJ  19077.62742881  .00001257  00000-0  53003-4 0  9994
2 42028  97.4168 145.6320 0009595 118.6852 241.5352 15.25133943115783
1 42028U 17008CJ  19078.41475010  .00001247  00000-0  52609-4 0  9999
2 42028  97.4167 146.4123 0009627 116.4244 243.7983 15.25135920115904
1 42028U 17008CJ  19079.79255935  .00001181  00000-0  49955-4 0  9990
2 42028  97.4164 147.7775 0009697 112.4782 247.7483 15.25139351116113
1 42028U 17008CJ  19080.71109531  .00001327  00000-0  55766-4 0  9993
2 42028  97.4161 148.6876 0009726 109.7327 250.4961 15.25143202116256
1 42028U 17008CJ  19081.17036158  .00001497  00000-0  62539-4 0  9992
2 42028  97.4161 149.1428 0009706 108.3285 251.9010 15.25145973116327
1 42028U 17008CJ  19081.76084850  .00001510  00000-0  63064-4 0  9999
2 42028  97.4161 149.7279 0009701 106.4030 253.8275 15.25147664116412
1 42028U 17008CJ  19082.94181998  .00001177  00000-0  49790-4 0  9990
2 42028  97.4160 150.8981 0009730 103.0888 257.1436 15.25149174116593
1 42028U 17008CJ  19083.46669553  .00001160  00000-0  49126-4 0  9991
2 42028  97.4159 151.4182 0009713 101.6487 258.5841 15.25150465116670
1 42028U 17008CJ  19083.79474255  .00001140  00000-0  48330-4 0  9994
2 42028  97.4158 151.7432 0009717 100.7205 259.5127 15.25151207116721
1 42028U 17008CJ  19084.84449168  .00001257  00000-0  52995-4 0  9997
2 42028  97.4156 152.7833 0009724  97.8404 262.3938 15.25154471116885
1 42028U 17008CJ  19085.89423998  .00001122  00000-0  47599-4 0  9991
2 42028  97.4155 153.8234 0009724  94.7377 265.4971 15.25156002117048
1 42028U 17008CJ  19086.22228598  .00001185  00000-0  50086-4 0  9992
2 42028  97.4155 154.1484 0009726  93.8037 266.4313 15.25156983117098
1 42028U 17008CJ  19086.61593970  .00001392  00000-0  58352-4 0  9998
2 42028  97.4155 154.5385 0009744  92.6958 267.5396 15.25159270117153
1 42028U 17008CJ  19086.94398488  .00001459  00000-0  61012-4 0  9992
2 42028  97.4154 154.8635 0009736  91.6681 268.5672 15.25160340117200
1 42028U 17008CJ  19087.40324749  .00001635  00000-0  68042-4 0  9999
2 42028  97.4153 155.3185 0009734  90.3501 269.8852 15.25162417117278
1 42028U 17008CJ  19087.53446492  .00001716  00000-0  71238-4 0  9994
2 42028  97.4153 155.4485 0009735  89.9748 270.2605 15.25163375117298
1 42028U 17008CJ  19087.66568278  .00001712  00000-0  71106-4 0  9995
2 42028  97.4153 155.5785 0009730  89.5569 270.6784 15.25163697117316
